{"fetched_at":"2026-03-29T16:36:15Z","count":15609,"tles":[{"name":"STARLINK-2426","line1":"1 47836U 21018BB  26087.60722177 -.00003609  00000+0 -10979-3 0  9993","line2":"2 47836  53.1604 157.1320 0001395  72.0401 288.0751 15.30193595279594","category":"Starlink"}]}