{
  "norad_id": 47836,
  "name": "STARLINK-2426",
  "history": [
    {
      "epoch": "2026-03-28T14:34:23.960928Z",
      "apogee_km": 476.1902389430379,
      "perigee_km": 474.2781483800063,
      "latitude_deg": -5.7269349517958104e-05,
      "longitude_deg": 112.50687923316924,
      "height_km": 475.8374471748304,
      "semi_major_axis_km": 6853.371193661522,
      "eccentricity": 0.0001395,
      "inclination_deg": 53.1604,
      "raan_deg": 157.132,
      "arg_perigee_deg": 72.0401,
      "mean_anomaly_deg": 288.0751,
      "mean_motion_rev_day": 15.30193595
    }
  ]
}